EYESAT-1 (AO-27)        
1 22825U 93061C   18018.83810881 -.00000018  00000-0  10673-4 0  9994
2 22825  98.8435 352.4053 0009396  65.1316 295.0841 14.30019481268229
CUTE-1 (CO-55)          
1 27844U 03031E   18018.51768460  .00000049  00000-0  41628-4 0  9995
2 27844  98.6884  29.3713 0010830  85.5407 274.7008 14.22089344754883
CUBESAT XI-IV (CO-57)   
1 27848U 03031J   18018.50589608  .00000028  00000-0  32364-4 0  9997
2 27848  98.6974  29.7051 0010746  94.5752 265.6653 14.21696729754767
CUBESAT XI 5            
1 28895U 05043F   18018.41114179  .00000130  00000-0  33666-4 0  9992
2 28895  97.8863 176.1270 0016932 178.5794 181.5460 14.63499099651732
CUTE-1.7+APD II (CO-65) 
1 32785U 08021C   18018.50171462  .00000203  00000-0  27720-4 0  9997
2 32785  97.5536  37.7818 0013387 168.4516 191.7011 14.88047551526847
COMPASS-1               
1 32787U 08021E   18018.52506396  .00000178  00000-0  22328-4 0  9999
2 32787  97.5400  47.9490 0013645 134.8314 225.4017 14.92887242527574
AAUSAT-II               
1 32788U 08021F   18018.82587684  .00000757  00000-0  75650-4 0  9991
2 32788  97.5372  51.4429 0013215 125.5954 234.6500 14.94191447527874
DELFI-C3 (DO-64)        
1 32789U 08021G   18018.60350806  .00000649  00000-0  49028-4 0  9992
2 32789  97.5330  77.0775 0014192  89.4818 270.8036 15.05682965529173
CANX-2                  
1 32790U 08021H   18018.52210643  .00000184  00000-0  25754-4 0  9993
2 32790  97.5531  36.0472 0013992 170.6546 189.4935 14.87757905526777
SEEDS II (CO-66)        
1 32791U 08021J   18018.49722097  .00000274  00000-0  33416-4 0  9995
2 32791  97.5463  42.7711 0014162 151.5971 208.6022 14.90447218527131
SWISSCUBE               
1 35932U 09051B   18018.36286643  .00000116  00000-0  37258-4 0  9990
2 35932  98.5223 166.1208 0006731 315.5869  44.4787 14.56111765441595
BEESAT                  
1 35933U 09051C   18018.40103809  .00000103  00000-0  34123-4 0  9992
2 35933  98.5261 167.6102 0005165 333.0181  27.0747 14.56220651441744
ITUPSAT 1               
1 35935U 09051E   18018.37146157  .00000075  00000-0  28414-4 0  9997
2 35935  98.5374 167.8345 0007377 323.9681  36.1017 14.55403528441502
TISAT 1                 
1 36799U 10035E   18018.56868328  .00000445  00000-0  51409-4 0  9993
2 36799  98.0849 151.0440 0011863 345.6880  14.3999 14.90670318407669
M-CUBED & EXP-1 PRIME   
1 37855U 11061F   18018.47940417  .00000525  00000-0  35235-4 0  9995
2 37855 101.7229   4.4141 0177912 165.0914 195.5640 15.03988749338670
HORYU 2                 
1 38340U 12025D   18018.07153326  .00000201  00000-0  37726-4 0  9995
2 38340  98.3744  34.5711 0010978 334.2110  25.8550 14.75485317304978
STRAND-1                
1 39090U 13009E   18018.54848624  .00000028  00000-0  25232-4 0  9991
2 39090  98.5334 226.7491 0009711  27.7620 332.4082 14.35007231256346
BRITE-AUSTRIA           
1 39091U 13009F   18018.55431593  .00000016  00000-0  20963-4 0  9999
2 39091  98.5300 226.0752 0011140  34.2489 325.9412 14.35057191256375
UNIBRITE                
1 39092U 13009G   18018.50277853  .00000002  00000-0  15994-4 0  9995
2 39092  98.5312 225.6967 0009906  28.9014 331.2718 14.34931371256349
AIST-2                  
1 39133U 13015D   18018.82116528  .00000083  00000-0  18482-4 0  9998
2 39133  64.8744 323.9971 0034238 246.0182 113.7351 15.04472454260736
SOMP                    
1 39134U 13015E   18018.41563692  .00001095  00000-0  61709-4 0  9996
2 39134  64.8628 251.2334 0029126 230.0855 129.7712 15.18723282261770
BEESAT-3                
1 39135U 13015F   18018.06398564  .00000658  00000-0  43658-4 0  9999
2 39135  64.8687 263.8095 0030857 254.1082 105.6642 15.16322584261493
BEESAT-2                
1 39136U 13015G   18018.64149078  .00000728  00000-0  47868-4 0  9993
2 39136  64.8690 264.3390 0030311 253.0384 106.7418 15.15806723261922
NEE-01 PEGASUS          
1 39151U 13018B   18018.73856256  .00000151  00000-0  27074-4 0  9993
2 39151  97.9786 113.8730 0018394  74.3650 285.9590 14.79842019255410
CUBEBUG-1 (CAPITAN BETO)
1 39153U 13018D   18018.72757586  .00000197  00000-0  32761-4 0  9999
2 39153  97.9815 114.8661 0018274  72.4369 287.8838 14.80326328255487
ESTCUBE 1               
1 39161U 13021C   18018.68894916  .00000132  00000-0  28992-4 0  9996
2 39161  98.0174 106.7829 0009730 167.3703 192.7750 14.72010241252451
POPACS 1                
1 39268U 13055D   18018.77492261  .00002311  00000-0  66229-4 0  9994
2 39268  81.0050 142.8618 0641893 306.3924  47.9657 14.32998665223044
POPACS 2                
1 39269U 13055E   18018.36659216  .00001905  00000-0  55291-4 0  9990
2 39269  81.0161 162.2214 0694887 356.8665   2.8255 14.21365411220630
POPACS 3                
1 39270U 13055F   18018.84586652  .00000322  00000-0  87345-5 0  9996
2 39270  81.0170 172.2018 0721769  26.7509 336.9048 14.14182499221249
ZACUBE-1 (TSHEPISOSAT)  
1 39417U 13066B   18018.51638603  .00000209  00000-0  32948-4 0  9991
2 39417  97.6047  55.0126 0057728 285.6983  73.7867 14.80861372224644
WNISAT-1                
1 39423U 13066H   18018.49005852  .00000122  00000-0  33295-4 0  9999
2 39423  97.7078 354.3178 0176638 124.7389 237.0565 14.52915721220501
TRITON-1                
1 39427U 13066M   18018.51298217  .00000202  00000-0  40283-4 0  9999
2 39427  97.6366  24.4140 0114638  19.6301 340.9265 14.67598931222437
GOMX 1                  
1 39430U 13066Q   18018.45867697  .00000243  00000-0  52562-4 0  9998
2 39430  97.6815   6.2661 0153081  83.2900 278.5696 14.59007132221323
BRITE-PL                
1 39431U 13066R   18018.39996054  .00000028  00000-0  15955-4 0  9998
2 39431  97.7374 342.4081 0202758 169.3430 191.2160 14.46902193219372
HUMSAT-D                
1 39433U 13066T   18018.59696344  .00000378  00000-0  42767-4 0  9990
2 39433  97.6257  80.0549 0030245 218.4038 141.5029 14.91721805224947
EAGLE 2                 
1 39436U 13066W   18018.26725818  .00042497  00000-0  61507-3 0  9996
2 39436  97.7125 142.3473 0005468  15.7475 344.3947 15.55771710228706
CUBEBUG-2 (LO-74)       
1 39440U 13066AA  18018.48657610  .00000208  00000-0  36273-4 0  9996
2 39440  97.6108  42.5480 0079643 322.4810  37.0858 14.75599079222648
NEE-02 KRYSAOR          
1 39441U 13066AB  18018.27904337  .00000138  00000-0  26889-4 0  9999
2 39441  97.6100  40.7497 0081203 327.6617  31.9629 14.74724908222522
FUNCUBE-1 (AO-73)       
1 39444U 13066AE  18018.52251777  .00000247  00000-0  37204-4 0  9997
2 39444  97.6061  56.3522 0056882 281.4968  77.9862 14.81624046222905
UWE-3                   
1 39446U 13066AG  18018.49487196  .00000206  00000-0  34341-4 0  9995
2 39446  97.6065  48.4242 0069056 304.5533  54.9173 14.78131837222417
BRITE-TORONTO           
1 40020U 14033L   18018.58783698  .00000078  00000-0  21890-4 0  9998
2 40020  97.8053 244.3133 0087675   2.3756 357.7848 14.66461486191544
DUCHIFAT-1              
1 40021U 14033M   18018.72942194  .00000408  00000-0  47976-4 0  9993
2 40021  97.9179 297.1797 0012128 316.2714  43.7542 14.90172618194694
FLOCK 1C-10             
1 40023U 14033P   18018.58925480  .00000895  00000-0  10083-3 0  9996
2 40023  97.9197 295.8347 0012057 324.1072  35.9331 14.89099264194555
NANOSATC-BR1            
1 40024U 14033Q   18018.29442542  .00000360  00000-0  43764-4 0  9998
2 40024  97.9126 295.2712 0011440 320.0838  39.9536 14.89455521194045
QB50P1                  
1 40025U 14033R   18018.59328578  .00000250  00000-0  32877-4 0  9995
2 40025  97.9094 294.2720 0011696 322.7227  37.3177 14.88618569194025
FLOCK 1C-7              
1 40026U 14033S   18018.36517729  .00000047  00000-0  10873-4 0  9995
2 40026  97.9213 296.6306 0010545 322.3605  37.6880 14.89836830194582
FLOCK 1C-1              
1 40027U 14033T   18018.74989707  .00000399  00000-0  48240-4 0  9996
2 40027  97.9234 296.2877 0012147 322.4554  37.5801 14.89158964194597
POPSAT-HIP-1            
1 40028U 14033U   18018.71153162  .00000014  00000-0  76080-5 0  9990
2 40028  97.9133 294.7307 0013197 321.1394  38.8885 14.88476930194536
FLOCK 1C-2              
1 40029U 14033V   18018.70817289  .00000161  00000-0  23058-4 0  9996
2 40029  97.9202 296.0863 0013331 317.5559  42.4649 14.89203030194571
FLOCK 1C-4              
1 40031U 14033X   18018.74739881  .00000490  00000-0  57993-4 0  9994
2 40031  97.9199 296.0643 0013709 315.0579  44.9480 14.89027694194568
QB50P2                  
1 40032U 14033Y   18018.77248137  .00000269  00000-0  35290-4 0  9997
2 40032  97.9057 293.3340 0011001 317.3528  42.6834 14.88168548194503
FLOCK 1C-11             
1 40033U 14033Z   18018.72945833  .00000825  00000-0  90553-4 0  9991
2 40033  97.9236 297.9885 0011068 308.0019  52.0209 14.90415964194693
ANTELSAT                
1 40034U 14033AA  18018.30537448  .00000225  00000-0  41255-4 0  9994
2 40034  97.8319 260.2222 0058184 321.9040  37.8062 14.73848278192607
FLOCK 1C-9              
1 40035U 14033AB  18018.75695644  .00000064  00000-0  12783-4 0  9992
2 40035  97.9224 296.5973 0011326 311.2307  48.7887 14.89231586194584
FLOCK 1C-6              
1 40036U 14033AC  18018.29234694  .00000288  00000-0  36351-4 0  9991
2 40036  97.9253 296.4022 0011333 312.9840  47.0426 14.89337873194531
PERSEUS-M2              
1 40037U 14033AD  18018.83223554  .00000080  00000-0  15337-4 0  9996
2 40037  97.9060 291.3781 0013599 324.0070  36.0228 14.86315336194343
FLOCK 1C-5              
1 40038U 14033AE  18018.70591534  .00000319  00000-0  39620-4 0  9995
2 40038  97.9222 296.5738 0013287 308.6599  51.3449 14.89307152194582
PERSEUS-M1              
1 40039U 14033AF  18018.81925537  .00000088  00000-0  16399-4 0  9993
2 40039  97.9062 290.8148 0013381 320.3428  39.6807 14.85937788194299
FLOCK 1C-8              
1 40040U 14033AG  18018.74996908  .00000563  00000-0  62309-4 0  9997
2 40040  97.9273 299.4839 0011717 294.5669  65.4229 14.91270329194751
